STARLINK-3302           
1 50842U 22001AR  26068.60980750 -.00000050  00000+0  14976-4 0  9997
2 50842  53.2182 179.4820 0001456  96.2762 263.8396 15.08837644230245
LEMUR-2-MARHISYAM       
1 60536U 24149BW  26068.74036894  .00013075  00000+0  82973-3 0  9990
2 60536  97.6912 151.2662 0003578 107.3271 252.8349 15.09015520 85478
